FLOCK 2K-36             
1 42876U 17042BD  17343.69130154  .00001738  00000-0  53305-4 0  9997
2 42876  96.9946 244.9195 0014645  69.4897 290.7917 15.34936161 22557
FLOCK 2K-35             
1 42877U 17042BE  17343.95268787  .00002821  00000-0  84734-4 0  9995
2 42877  96.9940 245.1642 0014550  68.4002 291.8791 15.35106014 22597
FLOCK 2K-34             
1 42878U 17042BF  17343.68966560  .00006893  00000-0  20441-3 0  9997
2 42878  96.9941 244.9150 0014673  70.0353 290.2470 15.35019901 22555
FLOCK 2K-33             
1 42879U 17042BG  17343.68673021  .00006838  00000-0  20284-3 0  9999
2 42879  96.9940 244.9193 0014730  69.7651 290.5176 15.35010343 22559
FLOCK 2K-28             
1 42880U 17042BH  17343.79854938  .00001747  00000-0  55397-4 0  9999
2 42880  96.9948 244.9301 0014912  69.5714 290.7129 15.33856519 22562
LEMUR-2-ARTFISCHER      
1 42881U 17042BJ  17343.90381614  .00003194  00000-0  97445-4 0  9997
2 42881  96.9969 245.1308 0015476  70.1619 290.1291 15.34504823 22578
FLOCK 2K-27             
1 42882U 17042BK  17343.68561970  .00004637  00000-0  13851-3 0  9999
2 42882  96.9944 244.9263 0014834  70.0509 290.2331 15.34958364 22550
FLOCK 2K-26             
1 42883U 17042BL  17343.68289024  .00007619  00000-0  22618-3 0  9991
2 42883  96.9941 244.9259 0014791  68.6956 291.5866 15.34949879 22552
FLOCK 2K-25             
1 42884U 17042BM  17343.68837698  .00005803  00000-0  17254-3 0  9991
2 42884  96.9940 244.9148 0014669  69.7821 290.5000 15.35003512 22551
FLOCK 2K-20             
1 42885U 17042BN  17343.68140658  .00005819  00000-0  17318-3 0  9993
2 42885  96.9940 244.9307 0014897  68.5395 291.7436 15.34965891 22557
FLOCK 2K-19             
1 42886U 17042BP  17343.68446666  .00006036  00000-0  17961-3 0  9998
2 42886  96.9941 244.9285 0014865  69.1383 291.1452 15.34957897 22552
FLOCK 2K-18             
1 42887U 17042BQ  17343.80304345  .00007774  00000-0  23095-3 0  9995
2 42887  96.9940 245.0626 0015063  67.5853 292.6986 15.34916979 22574
FLOCK 2K-17             
1 42888U 17042BR  17343.67723809  .00005586  00000-0  16679-3 0  9990
2 42888  96.9935 244.9256 0014996  67.0989 293.1837 15.34878024 22552
FLOCK 2K-16             
1 42889U 17042BS  17343.67820200  .00002040  00000-0  62203-4 0  9991
2 42889  96.9943 244.9349 0014673  67.0296 293.2494 15.34926240 22552
FLOCK 2K-15             
1 42890U 17042BT  17343.67104469  .00004373  00000-0  13093-3 0  9998
2 42890  96.9948 244.9506 0014936  67.6438 292.6387 15.34911275 22556
FLOCK 2K-13             
1 42891U 17042BU  17343.67966416  .00001515  00000-0  46745-4 0  9993
2 42891  96.9941 244.9303 0015001  65.0066 295.2734 15.34920417 22551
FLOCK 2K-14             
1 42892U 17042BV  17343.67381004  .00001785  00000-0  54711-4 0  9999
2 42892  96.9939 244.9308 0015005  66.5048 293.7771 15.34914175 22552
FLOCK 2K-12             
1 42893U 17042BW  17343.66815267  .00007574  00000-0  22501-3 0  9995
2 42893  96.9945 244.9492 0014995  68.0299 292.2537 15.34926561 22552
FLOCK 2K-11             
1 42894U 17042BX  17343.67548651  .00001939  00000-0  59275-4 0  9995
2 42894  96.9943 244.9393 0014976  64.3052 295.9737 15.34902704 22551
FLOCK 2K-10             
1 42895U 17042BY  17343.66927308  .00001974  00000-0  60248-4 0  9996
2 42895  96.9943 244.9381 0015041  66.2212 294.0608 15.34931496 22559
FLOCK 2K-09             
1 42896U 17042BZ  17343.66662364  .00007670  00000-0  22778-3 0  9999
2 42896  96.9944 244.9493 0014852  66.0206 294.2592 15.34933692 22728
FLOCK 2K-06             
1 42897U 17042CA  17343.70456741  .00005372  00000-0  15987-3 0  9996
2 42897  96.9940 244.9010 0013326  77.9994 282.2743 15.35023664 22556
SILU-1 (SILKROAD 1)     
1 42903U 17021F   17343.61975780  .00017061  00000-0  17846-3 0  9994
2 42903  42.7807  29.6786 0007777  42.9147  92.6558 15.64113471 20179
FLOCK 3M-1              
1 42995U 17068J   17343.90025107  .00000740  00000-0  39439-4 0  9996
2 42995  97.3436  96.9465 0019375  89.9812 270.3642 15.18041841  5916
FLOCK 3M-3              
1 42996U 17068K   17343.89614233  .00000738  00000-0  39196-4 0  9996
2 42996  97.3393  96.9276 0018736  90.6541 269.6840 15.18202308  5915
FLOCK 3M-4              
1 42997U 17068L   17343.89413474  .00002343  00000-0  11706-3 0  9991
2 42997  97.3600  97.0481 0018537  91.7214 268.6144 15.18287636  5918
FLOCK 3M-2              
1 42998U 17068M   17343.88644258  .00000890  00000-0  46113-4 0  9993
2 42998  97.3505  97.0022 0016724  88.0040 272.3109 15.18584678  5915
ECAMSAT                 
1 43019U 98067NG  17343.95399417  .00004097  00000-0  66944-4 0  9995
2 43019  51.6395 241.9929 0005394 179.5213 180.5784 15.55026675 89083
ASTERIA                 
1 43020U 98067NH  17343.95305812  .00008708  00000-0  13312-3 0  9996
2 43020  51.6394 241.9876 0002820 166.9775 193.1289 15.55255588  3004
DELLINGR (RBLE)         
1 43021U 98067NJ  17343.95464466  .00005111  00000-0  81750-4 0  9995
2 43021  51.6394 241.9979 0002605 165.3878 194.7189 15.55024617  3000
TECHEDSAT 6             
1 43026U 98067NK  17343.93982281  .00038694  00000-0  52735-3 0  9990
2 43026  51.6388 241.8996 0003279 158.6017 201.5112 15.57128092  2909
OSIRIS-3U               
1 43027U 98067NL  17343.94830530  .00013629  00000-0  20047-3 0  9993
2 43027  51.6394 241.9558 0004640 149.1363 210.9902 15.55763187  2880
